{
    "links": {
        "self": "http://www.neowsapp.com/rest/v1/neo/3661503?api_key=iIulBulltgU6a56xZRHN4H3l9WmuAYTsLGpBGhQ2"
    },
    "id": "3661503",
    "neo_reference_id": "3661503",
    "name": "(2014 CN13)",
    "designation": "2014 CN13",
    "nasa_jpl_url": "http://ssd.jpl.nasa.gov/sbdb.cgi?sstr=3661503",
    "absolute_magnitude_h": 24.1,
    "estimated_diameter": {
        "kilometers": {
            "estimated_diameter_min": 0.040230458,
            "estimated_diameter_max": 0.0899580388
        },
        "meters": {
            "estimated_diameter_min": 40.2304579834,
            "estimated_diameter_max": 89.9580388169
        },
        "miles": {
            "estimated_diameter_min": 0.0249980399,
            "estimated_diameter_max": 0.0558973165
        },
        "feet": {
            "estimated_diameter_min": 131.9896957704,
            "estimated_diameter_max": 295.1379320721
        }
    },
    "is_potentially_hazardous_asteroid": false,
    "close_approach_data": [
        {
            "close_approach_date": "2014-02-24",
            "close_approach_date_full": "2014-Feb-24 14:20",
            "epoch_date_close_approach": 1393251600000,
            "relative_velocity": {
                "kilometers_per_second": "10.8226677912",
                "kilometers_per_hour": "38961.6040483852",
                "miles_per_hour": "24209.2255821758"
            },
            "miss_distance": {
                "astronomical": "0.1135429142",
                "lunar": "44.1681936238",
                "kilometers": "16985778.117912754",
                "miles": "10554473.1050498452"
            },
            "orbiting_body": "Earth"
        },
        {
            "close_approach_date": "2046-03-20",
            "close_approach_date_full": "2046-Mar-20 12:50",
            "epoch_date_close_approach": 2405163000000,
            "relative_velocity": {
                "kilometers_per_second": "5.6138913897",
                "kilometers_per_hour": "20210.009002907",
                "miles_per_hour": "12557.7136496119"
            },
            "miss_distance": {
                "astronomical": "0.9264270325",
                "lunar": "360.3801156425",
                "kilometers": "138591510.772420775",
                "miles": "86116771.506225695"
            },
            "orbiting_body": "Juptr"
        },
        {
            "close_approach_date": "2170-03-22",
            "close_approach_date_full": "2170-Mar-22 19:27",
            "epoch_date_close_approach": 6318415620000,
            "relative_velocity": {
                "kilometers_per_second": "8.3808839114",
                "kilometers_per_hour": "30171.1820808859",
                "miles_per_hour": "18747.1992213149"
            },
            "miss_distance": {
                "astronomical": "0.185330711",
                "lunar": "72.093646579",
                "kilometers": "27725079.61118557",
                "miles": "17227565.617558066"
            },
            "orbiting_body": "Earth"
        },
        {
            "close_approach_date": "2176-11-10",
            "close_approach_date_full": "2176-Nov-10 23:22",
            "epoch_date_close_approach": 6527949720000,
            "relative_velocity": {
                "kilometers_per_second": "5.1062198502",
                "kilometers_per_hour": "18382.3914606283",
                "miles_per_hour": "11422.1031828554"
            },
            "miss_distance": {
                "astronomical": "0.9882182757",
                "lunar": "384.4169092473",
                "kilometers": "147835349.139792759",
                "miles": "91860626.3216237142"
            },
            "orbiting_body": "Juptr"
        }
    ],
    "orbital_data": {
        "orbit_id": "7",
        "orbit_determination_date": "2017-04-06 08:42:31",
        "first_observation_date": "2014-02-06",
        "last_observation_date": "2014-03-07",
        "data_arc_in_days": 29,
        "observations_used": 27,
        "orbit_uncertainty": "7",
        "minimum_orbit_intersection": ".112584",
        "jupiter_tisserand_invariant": "3.068",
        "epoch_osculation": "2459000.5",
        "eccentricity": ".6082516991485886",
        "semi_major_axis": "2.649727111336134",
        "inclination": "12.94816983739394",
        "ascending_node_longitude": "136.6571211041227",
        "orbital_period": "1575.433771476759",
        "perihelion_distance": "1.038026093585849",
        "perihelion_argument": "43.13308703701233",
        "aphelion_distance": "4.261428129086418",
        "perihelion_time": "2458311.598597666744",
        "mean_anomaly": "157.4198226101888",
        "mean_motion": ".2285084949413951",
        "equinox": "J2000",
        "orbit_class": {
            "orbit_class_type": "AMO",
            "orbit_class_description": "Near-Earth asteroid orbits similar to that of 1221 Amor",
            "orbit_class_range": "1.017 AU < q (perihelion) < 1.3 AU"
        }
    },
    "is_sentry_object": false
}